{
  "links" : {
    "next" : "https://api.nasa.gov/neo/rest/v1/feed?start_date=2009-01-16&end_date=2009-01-16&detailed=true&api_key=t0TVs3DtDT2H8Oy2Zy8m2eVrNsAVKAexjcZXUckd",
    "prev" : "https://api.nasa.gov/neo/rest/v1/feed?start_date=2009-01-14&end_date=2009-01-14&detailed=true&api_key=t0TVs3DtDT2H8Oy2Zy8m2eVrNsAVKAexjcZXUckd",
    "self" : "https://api.nasa.gov/neo/rest/v1/feed?start_date=2009-01-15&end_date=2009-01-15&detailed=true&api_key=t0TVs3DtDT2H8Oy2Zy8m2eVrNsAVKAexjcZXUckd"
  },
  "element_count" : 8,
  "near_earth_objects" : {
    "2009-01-15" : [ {
      "links" : {
        "self" : "https://api.nasa.gov/neo/rest/v1/neo/3739076?api_key=t0TVs3DtDT2H8Oy2Zy8m2eVrNsAVKAexjcZXUckd"
      },
      "neo_reference_id" : "3739076",
      "name" : "(2015 YP10)",
      "nasa_jpl_url" : "http://ssd.jpl.nasa.gov/sbdb.cgi?sstr=3739076",
      "absolute_magnitude_h" : 20.2,
      "estimated_diameter" : {
        "kilometers" : {
          "estimated_diameter_min" : 0.2424124811,
          "estimated_diameter_max" : 0.5420507863
        },
        "meters" : {
          "estimated_diameter_min" : 242.4124811008,
          "estimated_diameter_max" : 542.0507863358
        },
        "miles" : {
          "estimated_diameter_min" : 0.1506280858,
          "estimated_diameter_max" : 0.3368146392
        },
        "feet" : {
          "estimated_diameter_min" : 795.3165644948,
          "estimated_diameter_max" : 1778.3819018419
        }
      },
      "is_potentially_hazardous_asteroid" : false,
      "close_approach_data" : [ {
        "close_approach_date" : "2009-01-15",
        "epoch_date_close_approach" : 1232006400000,
        "relative_velocity" : {
          "kilometers_per_second" : "18.389065005",
          "kilometers_per_hour" : "66200.634018022",
          "miles_per_hour" : "41134.4995096981"
        },
        "miss_distance" : {
          "astronomical" : "0.4275701895",
          "lunar" : "166.324798584",
          "kilometers" : "63963592",
          "miles" : "39745132"
        },
        "orbiting_body" : "Earth"
      } ],
      "orbital_data" : {
        "orbit_id" : "38",
        "orbit_determination_date" : "2017-04-06 08:29:33",
        "orbit_uncertainty" : "1",
        "minimum_orbit_intersection" : ".195581",
        "jupiter_tisserand_invariant" : "4.535",
        "epoch_osculation" : "2458000.5",
        "eccentricity" : ".2282466020648604",
        "semi_major_axis" : "1.440175578807815",
        "inclination" : "25.86437470465074",
        "ascending_node_longitude" : "121.0974234162323",
        "orbital_period" : "631.2793602939656",
        "perihelion_distance" : "1.111460396568138",
        "perihelion_argument" : "310.1708808964358",
        "aphelion_distance" : "1.768890761047493",
        "perihelion_time" : "2457979.011169673384",
        "mean_anomaly" : "12.25444613614403",
        "mean_motion" : ".5702705056480226",
        "equinox" : "J2000"
      }
    }, {
      "links" : {
        "self" : "https://api.nasa.gov/neo/rest/v1/neo/3740044?api_key=t0TVs3DtDT2H8Oy2Zy8m2eVrNsAVKAexjcZXUckd"
      },
      "neo_reference_id" : "3740044",
      "name" : "(2016 AJ165)",
      "nasa_jpl_url" : "http://ssd.jpl.nasa.gov/sbdb.cgi?sstr=3740044",
      "absolute_magnitude_h" : 25.4,
      "estimated_diameter" : {
        "kilometers" : {
          "estimated_diameter_min" : 0.022108281,
          "estimated_diameter_max" : 0.0494356193
        },
        "meters" : {
          "estimated_diameter_min" : 22.1082810359,
          "estimated_diameter_max" : 49.435619262
        },
        "miles" : {
          "estimated_diameter_min" : 0.0137374447,
          "estimated_diameter_max" : 0.0307178602
        },
        "feet" : {
          "estimated_diameter_min" : 72.5337327539,
          "estimated_diameter_max" : 162.1903570994
        }
      },
      "is_potentially_hazardous_asteroid" : false,
      "close_approach_data" : [ {
        "close_approach_date" : "2009-01-15",
        "epoch_date_close_approach" : 1232006400000,
        "relative_velocity" : {
          "kilometers_per_second" : "19.9196850873",
          "kilometers_per_hour" : "71710.8663143653",
          "miles_per_hour" : "44558.3435718344"
        },
        "miss_distance" : {
          "astronomical" : "0.216198929",
          "lunar" : "84.1013870239",
          "kilometers" : "32342900",
          "miles" : "20096946"
        },
        "orbiting_body" : "Earth"
      } ],
      "orbital_data" : {
        "orbit_id" : "4",
        "orbit_determination_date" : "2017-04-06 08:29:09",
        "orbit_uncertainty" : "7",
        "minimum_orbit_intersection" : ".0741559",
        "jupiter_tisserand_invariant" : "6.389",
        "epoch_osculation" : "2458000.5",
        "eccentricity" : ".3611739535069803",
        "semi_major_axis" : ".9186400024882003",
        "inclination" : "22.43231535561117",
        "ascending_node_longitude" : "291.2549048947701",
        "orbital_period" : "321.6003082625484",
        "perihelion_distance" : ".5868511609398748",
        "perihelion_argument" : "317.0039630174883",
        "aphelion_distance" : "1.250428844036526",
        "perihelion_time" : "2458134.336244490722",
        "mean_anomaly" : "210.1834520092385",
        "mean_motion" : "1.119401912096747",
        "equinox" : "J2000"
      }
    } ]
  }
}